$$SOE
2460728.500000000, A.D. 2025-Feb-22 00:00:00.0000, 1.504823762764242E+08, 4.207351059519548E+08, -4.192031201724586E+07,
2460735.500000000, A.D. 2025-Mar-01 00:00:00.0000, 1.409068391206981E+08, 4.236337856066051E+08, -4.276467564532629E+07,
2460742.500000000, A.D. 2025-Mar-08 00:00:00.0000, 1.312554292102357E+08, 4.263048194776331E+08, -4.358598391206051E+07,
2460749.500000000, A.D. 2025-Mar-15 00:00:00.0000, 1.215331948637932E+08, 4.287462866897833E+08, -4.438374339290272E+07,
2460756.500000000, A.D. 2025-Mar-22 00:00:00.0000, 1.117452363268843E+08, 4.309563596147842E+08, -4.515746855522534E+07,
2460763.500000000, A.D. 2025-Mar-29 00:00:00.0000, 1.018967042090641E+08, 4.329333034059312E+08, -4.590668203463221E+07,
2460770.500000000, A.D. 2025-Apr-05 00:00:00.0000, 9.199279958381583E+07, 4.346754764651259E+08, -4.663091500107057E+07,
2460777.500000000, A.D. 2025-Apr-12 00:00:00.0000, 8.203877382267794E+07, 4.361813319456679E+08, -4.732970742991325E+07,
2460784.500000000, A.D. 2025-Apr-19 00:00:00.0000, 7.203992797262910E+07, 4.374494194088790E+08, -4.800260833292115E+07,
2460791.500000000, A.D. 2025-Apr-26 00:00:00.0000, 6.200161194472580E+07, 4.384783864317819E+08, -4.864917599077444E+07,
2460798.500000000, A.D. 2025-May-03 00:00:00.0000, 5.192922362424916E+07, 4.392669801853482E+08, -4.926897819624001E+07,
2460805.500000000, A.D. 2025-May-10 00:00:00.0000, 4.182820792759449E+07, 4.398140489921132E+08, -4.986159251004620E+07,
2460812.500000000, A.D. 2025-May-17 00:00:00.0000, 3.170405583923883E+07, 4.401185438219945E+08, -5.042660653627583E+07,
2460819.500000000, A.D. 2025-May-24 00:00:00.0000, 2.156230359916583E+07, 4.401795196715367E+08, -5.096361823770793E+07,
2460826.500000000, A.D. 2025-May-31 00:00:00.0000, 1.140853245476246E+07, 4.399961371374649E+08, -5.147223630408654E+07,
2460833.500000000, A.D. 2025-Jun-07 00:00:00.0000, 1.248368572962491E+06, 4.395676653899606E+08, -5.195208043845582E+07,
2460840.500000000, A.D. 2025-Jun-14 00:00:00.0000, -8.912519253745455E+06, 4.388934858775758E+08, -5.240278139930107E+07,
2460847.500000000, A.D. 2025-Jun-21 00:00:00.0000, -1.906842289460475E+07, 4.379730934879460E+08, -5.282398117644495E+07,
2460854.500000000, A.D. 2025-Jun-28 00:00:00.0000, -2.921359603904960E+07, 4.368060969286999E+08, -5.321533344334505E+07,
2460861.500000000, A.D. 2025-Jul-05 00:00:00.0000, -3.934225474599966E+07, 4.353922204861568E+08, -5.357650397121471E+07,
2460868.500000000, A.D. 2025-Jul-12 00:00:00.0000, -4.944857857760391E+07, 4.337313063541083E+08, -5.390717096145855E+07,
2460875.500000000, A.D. 2025-Jul-19 00:00:00.0000, -5.952671213177470E+07, 4.318233169547275E+08, -5.420702536049372E+07,
2460882.500000000, A.D. 2025-Jul-26 00:00:00.0000, -6.957076676776633E+07, 4.296683371925967E+08, -5.447577118067759E+07,
2460889.500000000, A.D. 2025-Aug-02 00:00:00.0000, -7.957482246358657E+07, 4.272665766610930E+08, -5.471312583147198E+07,
2460896.500000000, A.D. 2025-Aug-09 00:00:00.0000, -8.953292978604183E+07, 4.246183717839650E+08, -5.491882046407995E+07,
2460903.500000000, A.D. 2025-Aug-16 00:00:00.0000, -9.943911190078464E+07, 4.217241878261688E+08, -5.509260034165131E+07,
2460910.500000000, A.D. 2025-Aug-23 00:00:00.0000, -1.092873663342076E+08, 4.185846207876034E+08, -5.523422526041116E+07,
2460917.500000000, A.D. 2025-Aug-30 00:00:00.0000, -1.190716661629811E+08, 4.152003998912068E+08, -5.534346999353792E+07,
2460924.500000000, A.D. 2025-Sep-06 00:00:00.0000, -1.287859620534440E+08, 4.115723916640676E+08, -5.542012454637462E+07,
2460931.500000000, A.D. 2025-Sep-13 00:00:00.0000, -1.384241868227980E+08, 4.077016031249554E+08, -5.546399427241662E+07,
2460938.500000000, A.D. 2025-Sep-20 00:00:00.0000, -1.479802592508987E+08, 4.035891824249958E+08, -5.547490028278270E+07,
2460945.500000000, A.D. 2025-Sep-27 00:00:00.0000, -1.574480860897960E+08, 3.992364200464569E+08, -5.545267999087423E+07,
2460952.500000000, A.D. 2025-Oct-04 00:00:00.0000, -1.668215642921820E+08, 3.946447510938976E+08, -5.539718756272328E+07,
2460959.500000000, A.D. 2025-Oct-11 00:00:00.0000, -1.760945838371057E+08, 3.898157577278063E+08, -5.530829431489739E+07,
2460966.500000000, A.D. 2025-Oct-18 00:00:00.0000, -1.852610308754175E+08, 3.847511714605021E+08, -5.518588910801372E+07,
2460973.500000000, A.D. 2025-Oct-25 00:00:00.0000, -1.943147910610440E+08, 3.794528753212275E+08, -5.502987874804950E+07,
2460980.500000000, A.D. 2025-Nov-01 00:00:00.0000, -2.032497530327964E+08, 3.739229059019979E+08, -5.484018839817166E+07,
2460987.500000000, A.D. 2025-Nov-08 00:00:00.0000, -2.120598120151325E+08, 3.681634552477018E+08, -5.461676200682910E+07,
2460994.500000000, A.D. 2025-Nov-15 00:00:00.0000, -2.207388733925357E+08, 3.621768725253030E+08, -5.435956277003215E+07,
2461001.500000000, A.D. 2025-Nov-22 00:00:00.0000, -2.292808558574891E+08, 3.559656656844209E+08, -5.406857364604454E+07,
2461008.500000000, A.D. 2025-Nov-29 00:00:00.0000, -2.376796942887020E+08, 3.495325042361245E+08, -5.374379781502350E+07,
2461015.500000000, A.D. 2025-Dec-06 00:00:00.0000, -2.459293446407118E+08, 3.428802230070481E+08, -5.338525888567622E+07,
2461022.500000000, A.D. 2025-Dec-13 00:00:00.0000, -2.540237904117976E+08, 3.360118234906975E+08, -5.299300116334541E+07,
2461029.500000000, A.D. 2025-Dec-20 00:00:00.0000, -2.619570471973642E+08, 3.289304738067747E+08, -5.256709021414444E+07,
2461036.500000000, A.D. 2025-Dec-27 00:00:00.0000, -2.697231664069543E+08, 3.216395098497686E+08, -5.210761341403562E+07,
2461043.500000000, A.D. 2026-Jan-03 00:00:00.0000, -2.773162396066416E+08, 3.141424370042449E+08, -5.161468039912452E+07,
2461050.500000000, A.D. 2026-Jan-10 00:00:00.0000, -2.847304033769719E+08, 3.064429317391650E+08, -5.108842348158365E+07,
2461057.500000000, A.D. 2026-Jan-17 00:00:00.0000, -2.919598444534459E+08, 2.985448429796948E+08, -5.052899805849697E+07,
2461064.500000000, A.D. 2026-Jan-24 00:00:00.0000, -2.989988050707326E+08, 2.904521932690361E+08, -4.993658301733031E+07,
2461071.500000000, A.D. 2026-Jan-31 00:00:00.0000, -3.058415884854064E+08, 2.821691797024518E+08, -4.931138113905970E+07,
2461078.500000000, A.D. 2026-Feb-07 00:00:00.0000, -3.124825646129310E+08, 2.737001745650631E+08, -4.865361950732768E+07,
2461085.500000000, A.D. 2026-Feb-14 00:00:00.0000, -3.189161755222400E+08, 2.650497256460834E+08, -4.796354994592445E+07,
2461092.500000000, A.D. 2026-Feb-21 00:00:00.0000, -3.251369403964325E+08, 2.562225567934116E+08, -4.724144947072685E+07,
2461099.500000000, A.D. 2026-Feb-28 00:00:00.0000, -3.311394610413929E+08, 2.472235698485240E+08, -4.648762056044232E+07,
2461106.500000000, A.D. 2026-Mar-07 00:00:00.0000, -3.369184299987924E+08, 2.380578459999595E+08, -4.570239121563212E+07,
2461113.500000000, A.D. 2026-Mar-14 00:00:00.0000, -3.424686384819334E+08, 2.287306442116726E+08, -4.488611524961312E+07,
2461120.500000000, A.D. 2026-Mar-21 00:00:00.0000, -3.477849823431390E+08, 2.192473996095154E+08, -4.403917273512683E+07,
2461127.500000000, A.D. 2026-Mar-28 00:00:00.0000, -3.528624680770791E+08, 2.096137228405210E+08, -4.316197033677095E+07,
2461134.500000000, A.D. 2026-Apr-04 00:00:00.0000, -3.576962194577440E+08, 1.998353994287185E+08, -4.225494155160955E+07,
2461141.500000000, A.D. 2026-Apr-11 00:00:00.0000, -3.622814845254992E+08, 1.899183887563766E+08, -4.131854691049323E+07,
2461148.500000000, A.D. 2026-Apr-18 00:00:00.0000, -3.666136427536598E+08, 1.798688226515061E+08, -4.035327415279794E+07,
2461155.500000000, A.D. 2026-Apr-25 00:00:00.0000, -3.706882123367597E+08, 1.696930035835938E+08, -3.935963837515688E+07,
2461162.500000000, A.D. 2026-May-02 00:00:00.0000, -3.745008575570940E+08, 1.593974024255221E+08, -3.833818215710294E+07,
2461169.500000000, A.D. 2026-May-09 00:00:00.0000, -3.780473960913304E+08, 1.489886557036153E+08, -3.728947567824854E+07,
2461176.500000000, A.D. 2026-May-16 00:00:00.0000, -3.813238058644810E+08, 1.384735624631015E+08, -3.621411684820373E+07,
2461183.500000000, A.D. 2026-May-23 00:00:00.0000, -3.843262313831836E+08, 1.278590817610329E+08, -3.511273136825316E+07,
2461190.500000000, A.D. 2026-May-30 00:00:00.0000, -3.870509916096984E+08, 1.171523310966268E+08, -3.398597250599440E+07,
2461197.500000000, A.D. 2026-Jun-06 00:00:00.0000, -3.894945896761912E+08, 1.063605824979407E+08, -3.283452081948771E+07,
2461204.500000000, A.D. 2026-Jun-13 00:00:00.0000, -3.916537207502573E+08, 9.549125645729150E+07, -3.165908414798664E+07,
2461211.500000000, A.D. 2026-Jun-20 00:00:00.0000, -3.935252785257849E+08, 8.455191663082995E+07, -3.046039758053359E+07,
2461218.500000000, A.D. 2026-Jun-27 00:00:00.0000, -3.951063620159985E+08, 7.355026495015757E+07, -2.923922327259892E+07,
2461225.500000000, A.D. 2026-Jul-04 00:00:00.0000, -3.963942826316344E+08, 6.249413636364707E+07, -2.799635017388164E+07,
2461232.500000000, A.D. 2026-Jul-11 00:00:00.0000, -3.973865712718041E+08, 5.139149307273939E+07, -2.673259370115174E+07,
2461239.500000000, A.D. 2026-Jul-18 00:00:00.0000, -3.980809853133314E+08, 4.025041828848612E+07, -2.544879536185268E+07,
2461246.500000000, A.D. 2026-Jul-25 00:00:00.0000, -3.984755154500535E+08, 2.907910951176538E+07, -2.414582232938215E+07,
2461253.500000000, A.D. 2026-Aug-01 00:00:00.0000, -3.985683923081617E+08, 1.788587129052405E+07, -2.282456697708882E+07,
2461260.500000000, A.D. 2026-Aug-08 00:00:00.0000, -3.983580925958694E+08, 6.679107420566912E+06, -2.148594639232064E+07,
2461267.500000000, A.D. 2026-Aug-15 00:00:00.0000, -3.978433443448477E+08, -4.532686956016103E+06, -2.013090187060200E+07,
2461274.500000000, A.D. 2026-Aug-22 00:00:00.0000, -3.970231319764661E+08, -1.574093212854273E+07, -1.876039821937286E+07,
2461281.500000000, A.D. 2026-Aug-29 00:00:00.0000, -3.958967034551857E+08, -2.693697083831829E+07, -1.737542277311913E+07,
2461288.500000000, A.D. 2026-Sep-05 00:00:00.0000, -3.944635773714340E+08, -3.811207840139084E+07, -1.597698455010125E+07,
$$EOE